{"type": "FeatureCollection", "features": [ {"type": "Feature", "properties": {"norad_id": 38143, "name": "FENGYUN 1C DEB", "group": "fengyun-1c-debris", "lat": 1.9203886970462942, "lon": -146.28383338956647, "alt_km": 864.969767467569, "timestamp": "2025-12-03T10:52:57.743912+00:00", "meta": {"OBJECT_NAME": "FENGYUN 1C DEB", "OBJECT_ID": "1999-025EQQ", "EPOCH": "2025-12-02T22:04:03.833184", "MEAN_MOTION": 14.04865193, "ECCENTRICITY": 0.0055717, "INCLINATION": 99.0286, "RA_OF_ASC_NODE": 32.8796, "ARG_OF_PERICENTER": 248.4749, "MEAN_ANOMALY": 111.0473, "EPHEMERIS_TYPE": 0, "CLASSIFICATION_TYPE": "U", "NORAD_CAT_ID": 38143, "ELEMENT_SET_NO": 999, "REV_AT_EPOCH": 60145, "BSTAR": 0.00072272, "MEAN_MOTION_DOT": 1.132e-05, "MEAN_MOTION_DDOT": 0}, "tle": {"line1": "1 38143U 99025EQQ 25336.91948881  .00001132  00000+0  72272-3 0  9990", "line2": "2 38143  99.0286  32.8796 0055717 248.4749 111.0473 14.04865193601457"}}, "geometry": {"type": "Point", "coordinates": [-146.28383338956647, 1.9203886970462942]}}, {"type": "Feature", "properties": {"norad_id": 38144, "name": "FENGYUN 1C DEB", "group": "fengyun-1c-debris", "lat": -80.96461238042562, "lon": -113.99208880118721, "alt_km": 920.059277918639, "timestamp": "2025-12-03T10:52:57.743922+00:00", "meta": {"OBJECT_NAME": "FENGYUN 1C DEB", "OBJECT_ID": "1999-025EQR", "EPOCH": "2025-11-30T05:34:28.265376", "MEAN_MOTION": 13.58961896, "ECCENTRICITY": 0.02908675, "INCLINATION": 98.9697, "RA_OF_ASC_NODE": 159.7393, "ARG_OF_PERICENTER": 223.9628, "MEAN_ANOMALY": 133.8043, "EPHEMERIS_TYPE": 0, "CLASSIFICATION_TYPE": "U", "NORAD_CAT_ID": 38144, "ELEMENT_SET_NO": 999, "REV_AT_EPOCH": 60867, "BSTAR": 0.0017584648, "MEAN_MOTION_DOT": 1.663e-05, "MEAN_MOTION_DDOT": 0}, "tle": {"line1": "1 38144U 99025EQR 25334.23227159  .00001663  00000+0  17585-2 0  9996", "line2": "2 38144  98.9697 159.7393 0290867 223.9628 133.8043 13.58961896608676"}}, "geometry": {"type": "Point", "coordinates": [-113.99208880118721, -80.96461238042562]}}, {"type": "Feature", "properties": {"norad_id": 38146, "name": "FENGYUN 1C DEB", "group": "fengyun-1c-debris", "lat": 80.01144072599939, "lon": -15.015774971640822, "alt_km": 583.9593765072341, "timestamp": "2025-12-03T10:52:57.743932+00:00", "meta": {"OBJECT_NAME": "FENGYUN 1C DEB", "OBJECT_ID": "1999-025EQT", "EPOCH": "2025-12-02T23:45:55.782144", "MEAN_MOTION": 14.59025764, "ECCENTRICITY": 0.0203045, "INCLINATION": 99.4848, "RA_OF_ASC_NODE": 56.1207, "ARG_OF_PERICENTER": 132.1696, "MEAN_ANOMALY": 44.6408, "EPHEMERIS_TYPE": 0, "CLASSIFICATION_TYPE": "U", "NORAD_CAT_ID": 38146, "ELEMENT_SET_NO": 999, "REV_AT_EPOCH": 31737, "BSTAR": 0.0015299, "MEAN_MOTION_DOT": 9.527e-05, "MEAN_MOTION_DDOT": 0}, "tle": {"line1": "1 38146U 99025EQT 25336.99022896  .00009527  00000+0  15299-2 0  9991", "line2": "2 38146  99.4848  56.1207 0203045 132.1696  44.6408 14.59025764317379"}}, "geometry": {"type": "Point", "coordinates": [-15.015774971640822, 80.01144072599939]}}, {"type": "Feature", "properties": {"norad_id": 38147, "name": "FENGYUN 1C DEB", "group": "fengyun-1c-debris", "lat": 8.183891220226728, "lon": -9.312502400849127, "alt_km": 788.3495043721377, "timestamp": "2025-12-03T10:52:57.743943+00:00", "meta": {"OBJECT_NAME": "FENGYUN 1C DEB", "OBJECT_ID": "1999-025EQU", "EPOCH": "2025-11-29T07:18:26.920800", "MEAN_MOTION": 14.23385127, "ECCENTRICITY": 0.0050737, "INCLINATION": 98.5592, "RA_OF_ASC_NODE": 347.8933, "ARG_OF_PERICENTER": 338.7731, "MEAN_ANOMALY": 21.1342, "EPHEMERIS_TYPE": 0, "CLASSIFICATION_TYPE": "U", "NORAD_CAT_ID": 38147, "ELEMENT_SET_NO": 999, "REV_AT_EPOCH": 60196, "BSTAR": 0.00059773367, "MEAN_MOTION_DOT": 1.331e-05, "MEAN_MOTION_DDOT": 0}, "tle": {"line1": "1 38147U 99025EQU 25333.30447825  .00001331  00000+0  59773-3 0  9998", "line2": "2 38147  98.5592 347.8933 0050737 338.7731  21.1342 14.23385127601965"}}, "geometry": {"type": "Point", "coordinates": [-9.312502400849127, 8.183891220226728]}}, {"type": "Feature", "properties": {"norad_id": 38149, "name": "FENGYUN 1C DEB", "group": "fengyun-1c-debris", "lat": 64.83741554241588, "lon": -48.11535190416999, "alt_km": 828.5165922990263, "timestamp": "2025-12-03T10:52:57.743953+00:00", "meta": {"OBJECT_NAME": "FENGYUN 1C DEB", "OBJECT_ID": "1999-025EQW", "EPOCH": "2025-12-02T05:56:21.153984", "MEAN_MOTION": 14.25900864, "ECCENTRICITY": 0.0077386, "INCLINATION": 98.3564, "RA_OF_ASC_NODE": 328.9678, "ARG_OF_PERICENTER": 192.0658, "MEAN_ANOMALY": 167.8671, "EPHEMERIS_TYPE": 0, "CLASSIFICATION_TYPE": "U", "NORAD_CAT_ID": 38149, "ELEMENT_SET_NO": 999, "REV_AT_EPOCH": 70338, "BSTAR": 0.0002822, "MEAN_MOTION_DOT": 6.52e-06, "MEAN_MOTION_DDOT": 0}, "tle": {"line1": "1 38149U 99025EQW 25336.24746706  .00000652  00000+0  28220-3 0  9994", "line2": "2 38149  98.3564 328.9678 0077386 192.0658 167.8671 14.25900864703383"}}, "geometry": {"type": "Point", "coordinates": [-48.11535190416999, 64.83741554241588]}}, {"type": "Feature", "properties": {"norad_id": 38155, "name": "FENGYUN 1C DEB", "group": "fengyun-1c-debris", "lat": 34.54900108135603, "lon": -123.72462156439738, "alt_km": 840.9612276835232, "timestamp": "2025-12-03T10:52:57.743963+00:00", "meta": {"OBJECT_NAME": "FENGYUN 1C DEB", "OBJECT_ID": "1999-025ERC", "EPOCH": "2025-11-23T23:11:37.353120", "MEAN_MOTION": 14.24801471, "ECCENTRICITY": 0.00959279, "INCLINATION": 98.4446, "RA_OF_ASC_NODE": 233.0188, "ARG_OF_PERICENTER": 183.3275, "MEAN_ANOMALY": 176.7278, "EPHEMERIS_TYPE": 0, "CLASSIFICATION_TYPE": "U", "NORAD_CAT_ID": 38155, "ELEMENT_SET_NO": 999, "REV_AT_EPOCH": 63508, "BSTAR": 0.0025040606, "MEAN_MOTION_DOT": 6.088e-05, "MEAN_MOTION_DDOT": 0}, "tle": {"line1": "1 38155U 99025ERC 25327.96640455  .00006088  00000+0  25041-2 0  9990", "line2": "2 38155  98.4446 233.0188 0095927 183.3275 176.7278 14.24801471635087"}}, "geometry": {"type": "Point", "coordinates": [-123.72462156439738, 34.54900108135603]}}, {"type": "Feature", "properties": {"norad_id": 38157, "name": "FENGYUN 1C DEB", "group": "fengyun-1c-debris", "lat": -17.526131509863717, "lon": 60.448738694304254, "alt_km": 714.1053701920791, "timestamp": "2025-12-03T10:52:57.743973+00:00", "meta": {"OBJECT_NAME": "FENGYUN 1C DEB", "OBJECT_ID": "1999-025ERE", "EPOCH": "2025-12-02T23:50:34.575072", "MEAN_MOTION": 14.21679728, "ECCENTRICITY": 0.0273885, "INCLINATION": 99.6559, "RA_OF_ASC_NODE": 243.0272, "ARG_OF_PERICENTER": 141.7107, "MEAN_ANOMALY": 220.3868, "EPHEMERIS_TYPE": 0, "CLASSIFICATION_TYPE": "U", "NORAD_CAT_ID": 38157, "ELEMENT_SET_NO": 999, "REV_AT_EPOCH": 76109, "BSTAR": 0.00066802, "MEAN_MOTION_DOT": 2.092e-05, "MEAN_MOTION_DDOT": 0}, "tle": {"line1": "1 38157U 99025ERE 25336.99345573  .00002092  00000+0  66802-3 0  9990", "line2": "2 38157  99.6559 243.0272 0273885 141.7107 220.3868 14.21679728761092"}}, "geometry": {"type": "Point", "coordinates": [60.448738694304254, -17.526131509863717]}}, {"type": "Feature", "properties": {"norad_id": 38159, "name": "FENGYUN 1C DEB", "group": "fengyun-1c-debris", "lat": 26.50687667595114, "lon": 53.58261015399295, "alt_km": 915.5948042071068, "timestamp": "2025-12-03T10:52:57.743983+00:00", "meta": {"OBJECT_NAME": "FENGYUN 1C DEB", "OBJECT_ID": "1999-025ERG", "EPOCH": "2025-11-26T10:28:43.302720", "MEAN_MOTION": 14.03426914, "ECCENTRICITY": 0.00573234, "INCLINATION": 99.3154, "RA_OF_ASC_NODE": 221.7049, "ARG_OF_PERICENTER": 25.5121, "MEAN_ANOMALY": 334.8854, "EPHEMERIS_TYPE": 0, "CLASSIFICATION_TYPE": "U", "NORAD_CAT_ID": 38159, "ELEMENT_SET_NO": 999, "REV_AT_EPOCH": 82883, "BSTAR": 0.00052980182, "MEAN_MOTION_DOT": 7.94e-06, "MEAN_MOTION_DDOT": 0}, "tle": {"line1": "1 38159U 99025ERG 25330.43661230  .00000794  00000+0  52980-3 0  9995", "line2": "2 38159  99.3154 221.7049 0057323  25.5121 334.8854 14.03426914828838"}}, "geometry": {"type": "Point", "coordinates": [53.58261015399295, 26.50687667595114]}}, {"type": "Feature", "properties": {"norad_id": 38163, "name": "FENGYUN 1C DEB", "group": "fengyun-1c-debris", "lat": -7.147929680354535, "lon": 15.068554026822094, "alt_km": 871.770028478908, "timestamp": "2025-12-03T10:52:57.743993+00:00", "meta": {"OBJECT_NAME": "FENGYUN 1C DEB", "OBJECT_ID": "1999-025ERL", "EPOCH": "2025-12-02T07:35:17.158848", "MEAN_MOTION": 14.05873796, "ECCENTRICITY": 0.00755395, "INCLINATION": 99.1292, "RA_OF_ASC_NODE": 12.7674, "ARG_OF_PERICENTER": 271.3738, "MEAN_ANOMALY": 87.8776, "EPHEMERIS_TYPE": 0, "CLASSIFICATION_TYPE": "U", "NORAD_CAT_ID": 38163, "ELEMENT_SET_NO": 999, "REV_AT_EPOCH": 24395, "BSTAR": 0.0011114962, "MEAN_MOTION_DOT": 1.819e-05, "MEAN_MOTION_DDOT": 0}, "tle": {"line1": "1 38163U 99025ERL 25336.31617082  .00001819  00000+0  11115-2 0  9992", "line2": "2 38163  99.1292  12.7674 0075539 271.3738  87.8776 14.05873796243958"}}, "geometry": {"type": "Point", "coordinates": [15.068554026822094, -7.147929680354535]}}, {"type": "Feature", "properties": {"norad_id": 38166, "name": "FENGYUN 1C DEB", "group": "fengyun-1c-debris", "lat": 59.14520813490481, "lon": -84.35439176774983, "alt_km": 757.03797599052, "timestamp": "2025-12-03T10:52:57.744004+00:00", "meta": {"OBJECT_NAME": "FENGYUN 1C DEB", "OBJECT_ID": "1999-025ERP", "EPOCH": "2025-12-02T05:47:50.624160", "MEAN_MOTION": 14.30703931, "ECCENTRICITY": 0.0053537, "INCLINATION": 99.0784, "RA_OF_ASC_NODE": 78.8573, "ARG_OF_PERICENTER": 76.5372, "MEAN_ANOMALY": 284.1768, "EPHEMERIS_TYPE": 0, "CLASSIFICATION_TYPE": "U", "NORAD_CAT_ID": 38166, "ELEMENT_SET_NO": 999, "REV_AT_EPOCH": 63622, "BSTAR": 0.0032633, "MEAN_MOTION_DOT": 8.633e-05, "MEAN_MOTION_DDOT": 0}, "tle": {"line1": "1 38166U 99025ERP 25336.24155815  .00008633  00000+0  32633-2 0  9997", "line2": "2 38166  99.0784  78.8573 0053537  76.5372 284.1768 14.30703931636220"}}, "geometry": {"type": "Point", "coordinates": [-84.35439176774983, 59.14520813490481]}}]}